OBJECT_NAME,OBJECT_ID,EPOCH,MEAN_MOTION,ECCENTRICITY,INCLINATION,RA_OF_ASC_NODE,ARG_OF_PERICENTER,MEAN_ANOMALY,EPHEMERIS_TYPE,CLASSIFICATION_TYPE,NORAD_CAT_ID,ELEMENT_SET_NO,REV_AT_EPOCH,BSTAR,MEAN_MOTION_DOT,MEAN_MOTION_DDOT
FENGYUN 3D,2017-072A,2026-07-20T06:29:25.569312,14.19746473,.00012295,99.0154,176.2946,4.3236,355.7949,0,U,43010,999,44968,.23765772E-3,.457E-5,0
NOAA 20 (JPSS-1),2017-073A,2026-07-20T06:30:00.546624,14.19517107,.00015657,98.7772,140.4405,119.2046,240.9287,0,U,43013,999,44916,.33021492E-4,.25E-6,0
GOES 17,2018-022A,2026-07-20T06:33:48.373920,1.00272168,.00005811,1.0201,85.1871,61.9000,159.9124,0,U,43226,999,3075,0,-.185E-5,0
SENTINEL-3B,2018-039A,2026-07-20T03:37:03.853920,14.26737265,.00012512,98.6232,268.2072,118.9743,241.1563,0,U,43437,999,42882,.34871425E-4,.41E-6,0
FENGYUN 2H,2018-050A,2026-07-20T01:31:45.511680,1.00267007,.00021203,3.1143,78.6921,130.8519,190.2915,0,U,43491,999,2976,0,-.13E-5,0
METOP-C,2018-087A,2026-07-20T05:17:28.385088,14.21503735,.00021039,98.6626,260.2172,87.2573,272.8846,0,U,43689,999,39952,.37219627E-4,.38E-6,0
GEO-KOMPSAT-2A,2018-100A,2026-07-20T05:11:05.265888,1.00272425,.00024022,0.0288,147.0619,310.2065,46.7557,0,U,43823,999,2796,0,-.346E-5,0
METEOR-M2 2,2019-038A,2026-07-20T06:14:47.277024,14.24373371,.00003911,98.9170,189.0371,354.8589,5.2585,0,U,44387,999,36600,.1401343E-4,-.14E-6,0
ARKTIKA-M 1,2021-016A,2026-07-14T09:46:38.558208,2.00611590,.7297332,63.2662,53.6722,270.0591,14.4994,0,U,47719,999,3933,0,-.301E-5,0
FENGYUN 3E,2021-062A,2026-07-20T07:42:24.882912,14.19906820,.00019978,98.7507,204.3611,31.1149,329.0146,0,U,49008,999,26128,.13407285E-4,-.16E-6,0
GOES 18,2022-021A,2026-07-20T05:44:38.632128,1.00272468,.00003752,0.0173,100.0818,34.3815,112.7065,0,U,51850,999,692,0,.95E-6,0
NOAA 21 (JPSS-2),2022-150A,2026-07-20T05:34:54.092064,14.19541584,.00029211,98.7059,139.4668,95.5010,264.6499,0,U,54234,999,19123,.30121386E-4,.2E-6,0
METEOSAT-12 (MTG-I1),2022-170C,2026-07-20T06:17:03.768288,1.00269269,.00040418,0.7305,20.5978,81.1144,290.2119,0,U,54743,999,1331,0,-.11E-6,0
TIANMU-1 03,2023-039A,2026-07-20T06:45:27.745632,15.48132782,.00021377,97.5251,16.5713,8.2846,351.8439,0,U,55973,999,18595,.17377924E-3,.9027E-4,0
TIANMU-1 04,2023-039B,2026-07-20T07:44:27.850848,15.48764249,.00025067,97.5193,15.7704,352.4292,7.6920,0,U,55974,999,18597,.17672354E-3,.9387E-4,0
TIANMU-1 05,2023-039C,2026-07-20T07:53:10.807584,15.48058527,.00025034,97.5236,16.2229,33.1505,326.9902,0,U,55975,999,18594,.17083162E-3,.8849E-4,0
TIANMU-1 06,2023-039D,2026-07-20T07:52:25.383648,15.48659814,.0002536,97.5244,16.8919,22.6042,337.5319,0,U,55976,999,18597,.17412132E-3,.9214E-4,0
FENGYUN 3G,2023-055A,2026-07-20T07:12:06.765984,15.53936084,.00068716,49.9914,175.2214,80.0701,280.1042,0,U,56232,999,18515,.21827072E-3,.1393E-3,0
METEOR-M2 3,2023-091A,2026-07-20T07:58:48.185760,14.24049187,.00050957,98.6065,255.6293,78.8723,281.3029,0,U,57166,999,15923,.549642E-5,-.31E-6,0
TIANMU-1 07,2023-101A,2026-07-20T07:47:06.960768,15.30149846,.00033847,97.2573,251.2359,54.0946,306.0609,0,U,57399,999,16671,.11966846E-3,.3417E-4,0
TIANMU-1 08,2023-101B,2026-07-20T06:58:57.297216,15.30152997,.00041092,97.2562,250.9690,32.3779,327.7713,0,U,57400,999,16670,.11718716E-3,.3345E-4,0
TIANMU-1 09,2023-101C,2026-07-20T08:08:06.065376,15.30195458,.00039715,97.2519,250.4149,53.1437,307.0168,0,U,57401,999,16671,.12561205E-3,.3596E-4,0
TIANMU-1 10,2023-101D,2026-07-20T07:22:21.489888,15.30169148,.00051738,97.2599,251.4682,40.1825,319.9798,0,U,57402,999,16670,.12606872E-3,.3606E-4,0
FENGYUN 3F,2023-111A,2026-07-20T07:18:06.102720,14.19943958,.00011731,98.6822,270.6934,75.2727,284.8580,0,U,57490,999,15356,.24215864E-4,.8E-7,0
ARKTIKA-M 2,2023-198A,2026-07-15T04:12:00.091584,2.00608092,.69107365,63.2178,151.2342,267.3397,18.7345,0,U,58584,999,1888,0,.129E-5,0
TIANMU-1 11,2023-205A,2026-07-20T06:34:17.268672,15.27293035,.00070348,97.3445,222.3172,239.4564,120.5981,0,U,58645,999,14257,.11257327E-3,.2938E-4,0
TIANMU-1 12,2023-205B,2026-07-18T09:53:22.905024,15.27114343,.00060948,97.3431,220.2298,220.4884,139.5903,0,U,58646,999,14227,.10886909E-3,.2823E-4,0
TIANMU-1 13,2023-205C,2026-07-20T06:43:32.423232,15.27118614,.00063729,97.3461,222.3503,192.4622,167.6460,0,U,58647,999,14255,.1205925E-3,.3135E-4,0
TIANMU-1 14,2023-205D,2026-07-20T07:55:12.653184,15.27162625,.00069774,97.3399,221.5551,199.5613,160.5360,0,U,58648,999,14256,.11829008E-3,.3078E-4,0
TIANMU-1 19,2023-208A,2026-07-20T06:36:55.134432,15.32021737,.00050954,97.4526,317.7600,180.1030,180.0211,0,U,58660,999,14239,.15341022E-3,.4664E-4,0
