FENGYUN 3D              
1 43010U 17072A   26201.27043483  .00000457  00000+0  23766-3 0  9999
2 43010  99.0154 176.2946 0001229   4.3236 355.7949 14.19746473449684
NOAA 20 (JPSS-1)        
1 43013U 17073A   26201.27083966  .00000025  00000+0  33021-4 0  9990
2 43013  98.7772 140.4405 0001565 119.2046 240.9287 14.19517107449163
GOES 17                 
1 43226U 18022A   26201.27347655 -.00000185  00000+0  00000+0 0  9993
2 43226   1.0201  85.1871 0000581  61.9000 159.9124  1.00272168 30756
SENTINEL-3B             
1 43437U 18039A   26201.15073905  .00000041  00000+0  34871-4 0  9994
2 43437  98.6232 268.2072 0001251 118.9743 241.1563 14.26737265428821
FENGYUN 2H              
1 43491U 18050A   26201.06372120 -.00000130  00000+0  00000+0 0  9990
2 43491   3.1143  78.6921 0002120 130.8519 190.2915  1.00267007 29764
METOP-C                 
1 43689U 18087A   26201.22046742  .00000038  00000+0  37220-4 0  9990
2 43689  98.6626 260.2172 0002103  87.2573 272.8846 14.21503735399523
GEO-KOMPSAT-2A          
1 43823U 18100A   26201.21603317 -.00000346  00000+0  00000+0 0  9996
2 43823   0.0288 147.0619 0002402 310.2065  46.7557  1.00272425 27964
METEOR-M2 2             
1 44387U 19038A   26201.26026941 -.00000014  00000+0  14013-4 0  9996
2 44387  98.9170 189.0371 0000391 354.8589   5.2585 14.24373371366001
ARKTIKA-M 1             
1 47719U 21016A   26195.40739072 -.00000301  00000+0  00000+0 0  9996
2 47719  63.2662  53.6722 7297332 270.0591  14.4994  2.00611590 39330
FENGYUN 3E              
1 49008U 21062A   26201.32112133 -.00000016  00000+0  13407-4 0  9995
2 49008  98.7507 204.3611 0001997  31.1149 329.0146 14.19906820261285
GOES 18                 
1 51850U 22021A   26201.23933602  .00000095  00000+0  00000+0 0  9997
2 51850   0.0173 100.0818 0000375  34.3815 112.7065  1.00272468  6928
NOAA 21 (JPSS-2)        
1 54234U 22150A   26201.23257051  .00000020  00000+0  30121-4 0  9996
2 54234  98.7059 139.4668 0002921  95.5010 264.6499 14.19541584191237
METEOSAT-12 (MTG-I1)    
1 54743U 22170C   26201.26184917 -.00000011  00000+0  00000+0 0  9995
2 54743   0.7305  20.5978 0004041  81.1144 290.2119  1.00269269 13316
TIANMU-1 03             
1 55973U 23039A   26201.28157113  .00009027  00000+0  17378-3 0  9991
2 55973  97.5251  16.5713 0002137   8.2846 351.8439 15.48132782185956
TIANMU-1 04             
1 55974U 23039B   26201.32254457  .00009387  00000+0  17672-3 0  9992
2 55974  97.5193  15.7704 0002506 352.4292   7.6920 15.48764249185974
TIANMU-1 05             
1 55975U 23039C   26201.32859731  .00008849  00000+0  17083-3 0  9997
2 55975  97.5236  16.2229 0002503  33.1505 326.9902 15.48058527185947
TIANMU-1 06             
1 55976U 23039D   26201.32807157  .00009214  00000+0  17412-3 0  9996
2 55976  97.5244  16.8919 0002536  22.6042 337.5319 15.48659814185973
FENGYUN 3G              
1 56232U 23055A   26201.30007831  .00013930  00000+0  21827-3 0  9994
2 56232  49.9914 175.2214 0006871  80.0701 280.1042 15.53936084185157
METEOR-M2 3             
1 57166U 23091A   26201.33250215 -.00000031  00000+0  54964-5 0  9999
2 57166  98.6065 255.6293 0005095  78.8723 281.3029 14.24049187159232
TIANMU-1 07             
1 57399U 23101A   26201.32438612  .00003417  00000+0  11967-3 0  9991
2 57399  97.2573 251.2359 0003384  54.0946 306.0609 15.30149846166717
TIANMU-1 08             
1 57400U 23101B   26201.29094094  .00003345  00000+0  11719-3 0  9997
2 57400  97.2562 250.9690 0004109  32.3779 327.7713 15.30152997166707
TIANMU-1 09             
1 57401U 23101C   26201.33895909  .00003596  00000+0  12561-3 0  9991
2 57401  97.2519 250.4149 0003971  53.1437 307.0168 15.30195458166717
TIANMU-1 10             
1 57402U 23101D   26201.30719317  .00003606  00000+0  12607-3 0  9990
2 57402  97.2599 251.4682 0005173  40.1825 319.9798 15.30169148166709
FENGYUN 3F              
1 57490U 23111A   26201.30423730  .00000008  00000+0  24216-4 0  9992
2 57490  98.6822 270.6934 0001173  75.2727 284.8580 14.19943958153563
ARKTIKA-M 2             
1 58584U 23198A   26196.17500106  .00000129  00000+0  00000+0 0  9997
2 58584  63.2178 151.2342 6910736 267.3397  18.7345  2.00608092 18886
TIANMU-1 11             
1 58645U 23205A   26201.27381098  .00002938  00000+0  11257-3 0  9999
2 58645  97.3445 222.3172 0007034 239.4564 120.5981 15.27293035142570
TIANMU-1 12             
1 58646U 23205B   26199.41207066  .00002823  00000+0  10887-3 0  9995
2 58646  97.3431 220.2298 0006094 220.4884 139.5903 15.27114343142277
TIANMU-1 13             
1 58647U 23205C   26201.28023638  .00003135  00000+0  12059-3 0  9996
2 58647  97.3461 222.3503 0006372 192.4622 167.6460 15.27118614142556
TIANMU-1 14             
1 58648U 23205D   26201.33000756  .00003078  00000+0  11829-3 0  9999
2 58648  97.3399 221.5551 0006977 199.5613 160.5360 15.27162625142563
TIANMU-1 19             
1 58660U 23208A   26201.27563813  .00004664  00000+0  15341-3 0  9992
2 58660  97.4526 317.7600 0005095 180.1030 180.0211 15.32021737142399
